STARLINK-3545           
1 51855U 22022D   26065.32355379  .00000135  00000+0  26574-4 0  9994
2 51855  53.2179  34.1526 0001456  97.2555 262.8602 15.08839379222468
STARLINK-3568           
1 51856U 22022E   26065.33561790 -.00007201  00000+0 -43553-3 0  9990
2 51856  53.2193  34.1876 0001418  98.6669 261.4484 15.08779616222541
STARLINK-3571           
1 51857U 22022F   26065.32452058  .00000138  00000+0  26766-4 0  9994
2 51857  53.2197  34.2367 0001486  97.9443 262.1718 15.08840803222511
STARLINK-3563           
1 51858U 22022G   26065.32724284  .00000455  00000+0  46689-4 0  9996
2 51858  53.2185  34.2135 0001445  93.4040 266.7118 15.08837886222512
STARLINK-3560           
1 51859U 22022H   26065.60879793  .00001284  00000+0  98717-4 0  9994
2 51859  53.2186  22.9595 0001313  94.0068 266.1075 15.08844100222691
STARLINK-3559           
1 51860U 22022J   26065.61520580  .00000911  00000+0  75354-4 0  9992
2 51860  53.2176  22.9193 0001389  93.5278 266.5873 15.08838401222659
STARLINK-3562           
1 51861U 22022K   26065.20304926 -.00000275  00000+0  83463-6 0  9998
2 51861  53.2188  24.7714 0001323 103.7419 256.3721 15.08848780222505
STARLINK-3508           
1 51862U 22022L   26065.61152427  .00005937  00000+0  39071-3 0  9993
2 51862  53.2182  22.9388 0001437  93.2714 266.8443 15.08846949222708
STARLINK-3555           
1 51863U 22022M   26065.26194309  .00006375  00000+0  41836-3 0  9999
2 51863  53.2179  24.5103 0001419  98.2864 261.8289 15.08833182222594
STARLINK-3548           
1 51864U 22022N   26065.26559997 -.00001715  00000+0 -89718-4 0  9995
2 51864  53.2191  24.4154 0001048  93.8512 266.2600 15.08826581222640
STARLINK-3503           
1 51865U 22022P   26065.05585015 -.00000739  00000+0 -28361-4 0  9995
2 51865  53.2186  25.4336 0001274  93.5317 266.5821 15.08833513222561
STARLINK-3553           
1 51866U 22022Q   26065.58302469  .00000893  00000+0  74189-4 0  9992
2 51866  53.2188  22.9227 0001278  84.4024 275.7114 15.08839416222647
STARLINK-3590           
1 51867U 22022R   26065.58207681 -.00001517  00000+0 -77232-4 0  9991
2 51867  53.2194  23.0741 0001431  98.3511 261.7643 15.08834682222646
STARLINK-3578           
1 51868U 22022S   26065.58944817 -.00000091  00000+0  12367-4 0  9994
2 51868  53.2187  23.0396 0001316  88.1623 271.9520 15.08839648222642
STARLINK-3588           
1 51869U 22022T   26065.57104405  .00000510  00000+0  50148-4 0  9999
2 51869  53.2203  23.1184 0001541  83.0939 277.0229 15.08838743222640
STARLINK-3591           
1 51870U 22022U   26065.57840342 -.00002280  00000+0 -12517-3 0  9993
2 51870  53.2191  23.0895 0001081  75.8245 284.2868 15.08845069222697
