[{"OBJECT_NAME":"STARLINK-3545","OBJECT_ID":"2022-022D","EPOCH":"2026-03-06T07:45:55.047456","MEAN_MOTION":15.08839379,"ECCENTRICITY":0.00014567,"INCLINATION":53.2179,"RA_OF_ASC_NODE":34.1526,"ARG_OF_PERICENTER":97.2555,"MEAN_ANOMALY":262.8602,"EPHEMERIS_TYPE":0,"CLASSIFICATION_TYPE":"U","NORAD_CAT_ID":51855,"ELEMENT_SET_NO":999,"REV_AT_EPOCH":22246,"BSTAR":2.6574136e-5,"MEAN_MOTION_DOT":1.35e-6,"MEAN_MOTION_DDOT":0},{"OBJECT_NAME":"STARLINK-3568","OBJECT_ID":"2022-022E","EPOCH":"2026-03-06T08:03:17.386560","MEAN_MOTION":15.08779616,"ECCENTRICITY":0.0001418,"INCLINATION":53.2193,"RA_OF_ASC_NODE":34.1876,"ARG_OF_PERICENTER":98.6669,"MEAN_ANOMALY":261.4484,"EPHEMERIS_TYPE":0,"CLASSIFICATION_TYPE":"U","NORAD_CAT_ID":51856,"ELEMENT_SET_NO":999,"REV_AT_EPOCH":22254,"BSTAR":-0.00043552838,"MEAN_MOTION_DOT":-7.201e-5,"MEAN_MOTION_DDOT":0},{"OBJECT_NAME":"STARLINK-3571","OBJECT_ID":"2022-022F","EPOCH":"2026-03-06T07:47:18.578112","MEAN_MOTION":15.08840803,"ECCENTRICITY":0.00014866,"INCLINATION":53.2197,"RA_OF_ASC_NODE":34.2367,"ARG_OF_PERICENTER":97.9443,"MEAN_ANOMALY":262.1718,"EPHEMERIS_TYPE":0,"CLASSIFICATION_TYPE":"U","NORAD_CAT_ID":51857,"ELEMENT_SET_NO":999,"REV_AT_EPOCH":22251,"BSTAR":2.6766291e-5,"MEAN_MOTION_DOT":1.38e-6,"MEAN_MOTION_DDOT":0},{"OBJECT_NAME":"STARLINK-3563","OBJECT_ID":"2022-022G","EPOCH":"2026-03-06T07:51:13.781376","MEAN_MOTION":15.08837886,"ECCENTRICITY":0.00014453,"INCLINATION":53.2185,"RA_OF_ASC_NODE":34.2135,"ARG_OF_PERICENTER":93.404,"MEAN_ANOMALY":266.7118,"EPHEMERIS_TYPE":0,"CLASSIFICATION_TYPE":"U","NORAD_CAT_ID":51858,"ELEMENT_SET_NO":999,"REV_AT_EPOCH":22251,"BSTAR":4.6689498e-5,"MEAN_MOTION_DOT":4.55e-6,"MEAN_MOTION_DDOT":0},{"OBJECT_NAME":"STARLINK-3560","OBJECT_ID":"2022-022H","EPOCH":"2026-03-06T14:36:40.141152","MEAN_MOTION":15.088441,"ECCENTRICITY":0.0001313,"INCLINATION":53.2186,"RA_OF_ASC_NODE":22.9595,"ARG_OF_PERICENTER":94.0068,"MEAN_ANOMALY":266.1075,"EPHEMERIS_TYPE":0,"CLASSIFICATION_TYPE":"U","NORAD_CAT_ID":51859,"ELEMENT_SET_NO":999,"REV_AT_EPOCH":22269,"BSTAR":9.8717208e-5,"MEAN_MOTION_DOT":1.284e-5,"MEAN_MOTION_DDOT":0},{"OBJECT_NAME":"STARLINK-3559","OBJECT_ID":"2022-022J","EPOCH":"2026-03-06T14:45:53.781120","MEAN_MOTION":15.08838401,"ECCENTRICITY":0.00013899,"INCLINATION":53.2176,"RA_OF_ASC_NODE":22.9193,"ARG_OF_PERICENTER":93.5278,"MEAN_ANOMALY":266.5873,"EPHEMERIS_TYPE":0,"CLASSIFICATION_TYPE":"U","NORAD_CAT_ID":51860,"ELEMENT_SET_NO":999,"REV_AT_EPOCH":22265,"BSTAR":7.5353547e-5,"MEAN_MOTION_DOT":9.11e-6,"MEAN_MOTION_DDOT":0},{"OBJECT_NAME":"STARLINK-3562","OBJECT_ID":"2022-022K","EPOCH":"2026-03-06T04:52:23.456064","MEAN_MOTION":15.0884878,"ECCENTRICITY":0.00013235,"INCLINATION":53.2188,"RA_OF_ASC_NODE":24.7714,"ARG_OF_PERICENTER":103.7419,"MEAN_ANOMALY":256.3721,"EPHEMERIS_TYPE":0,"CLASSIFICATION_TYPE":"U","NORAD_CAT_ID":51861,"ELEMENT_SET_NO":999,"REV_AT_EPOCH":22250,"BSTAR":8.34632e-7,"MEAN_MOTION_DOT":-2.75e-6,"MEAN_MOTION_DDOT":0},{"OBJECT_NAME":"STARLINK-3508","OBJECT_ID":"2022-022L","EPOCH":"2026-03-06T14:40:35.696928","MEAN_MOTION":15.08846949,"ECCENTRICITY":0.00014372,"INCLINATION":53.2182,"RA_OF_ASC_NODE":22.9388,"ARG_OF_PERICENTER":93.2714,"MEAN_ANOMALY":266.8443,"EPHEMERIS_TYPE":0,"CLASSIFICATION_TYPE":"U","NORAD_CAT_ID":51862,"ELEMENT_SET_NO":999,"REV_AT_EPOCH":22270,"BSTAR":0.0003907128,"MEAN_MOTION_DOT":5.937e-5,"MEAN_MOTION_DDOT":0},{"OBJECT_NAME":"STARLINK-3555","OBJECT_ID":"2022-022M","EPOCH":"2026-03-06T06:17:11.882976","MEAN_MOTION":15.08833182,"ECCENTRICITY":0.0001419,"INCLINATION":53.2179,"RA_OF_ASC_NODE":24.5103,"ARG_OF_PERICENTER":98.2864,"MEAN_ANOMALY":261.8289,"EPHEMERIS_TYPE":0,"CLASSIFICATION_TYPE":"U","NORAD_CAT_ID":51863,"ELEMENT_SET_NO":999,"REV_AT_EPOCH":22259,"BSTAR":0.00041835507,"MEAN_MOTION_DOT":6.375e-5,"MEAN_MOTION_DDOT":0},{"OBJECT_NAME":"STARLINK-3548","OBJECT_ID":"2022-022N","EPOCH":"2026-03-06T06:22:27.837408","MEAN_MOTION":15.08826581,"ECCENTRICITY":0.00010484,"INCLINATION":53.2191,"RA_OF_ASC_NODE":24.4154,"ARG_OF_PERICENTER":93.8512,"MEAN_ANOMALY":266.26,"EPHEMERIS_TYPE":0,"CLASSIFICATION_TYPE":"U","NORAD_CAT_ID":51864,"ELEMENT_SET_NO":999,"REV_AT_EPOCH":22264,"BSTAR":-8.9718276e-5,"MEAN_MOTION_DOT":-1.715e-5,"MEAN_MOTION_DDOT":0},{"OBJECT_NAME":"STARLINK-3503","OBJECT_ID":"2022-022P","EPOCH":"2026-03-06T01:20:25.452960","MEAN_MOTION":15.08833513,"ECCENTRICITY":0.00012742,"INCLINATION":53.2186,"RA_OF_ASC_NODE":25.4336,"ARG_OF_PERICENTER":93.5317,"MEAN_ANOMALY":266.5821,"EPHEMERIS_TYPE":0,"CLASSIFICATION_TYPE":"U","NORAD_CAT_ID":51865,"ELEMENT_SET_NO":999,"REV_AT_EPOCH":22256,"BSTAR":-2.836109e-5,"MEAN_MOTION_DOT":-7.39e-6,"MEAN_MOTION_DDOT":0},{"OBJECT_NAME":"STARLINK-3553","OBJECT_ID":"2022-022Q","EPOCH":"2026-03-06T13:59:33.333216","MEAN_MOTION":15.08839416,"ECCENTRICITY":0.00012782,"INCLINATION":53.2188,"RA_OF_ASC_NODE":22.9227,"ARG_OF_PERICENTER":84.4024,"MEAN_ANOMALY":275.7114,"EPHEMERIS_TYPE":0,"CLASSIFICATION_TYPE":"U","NORAD_CAT_ID":51866,"ELEMENT_SET_NO":999,"REV_AT_EPOCH":22264,"BSTAR":7.4189495e-5,"MEAN_MOTION_DOT":8.93e-6,"MEAN_MOTION_DDOT":0},{"OBJECT_NAME":"STARLINK-3590","OBJECT_ID":"2022-022R","EPOCH":"2026-03-06T13:58:11.436384","MEAN_MOTION":15.08834682,"ECCENTRICITY":0.00014313,"INCLINATION":53.2194,"RA_OF_ASC_NODE":23.0741,"ARG_OF_PERICENTER":98.3511,"MEAN_ANOMALY":261.7643,"EPHEMERIS_TYPE":0,"CLASSIFICATION_TYPE":"U","NORAD_CAT_ID":51867,"ELEMENT_SET_NO":999,"REV_AT_EPOCH":22264,"BSTAR":-7.7231937e-5,"MEAN_MOTION_DOT":-1.517e-5,"MEAN_MOTION_DDOT":0},{"OBJECT_NAME":"STARLINK-3578","OBJECT_ID":"2022-022S","EPOCH":"2026-03-06T14:08:48.321888","MEAN_MOTION":15.08839648,"ECCENTRICITY":0.00013169,"INCLINATION":53.2187,"RA_OF_ASC_NODE":23.0396,"ARG_OF_PERICENTER":88.1623,"MEAN_ANOMALY":271.952,"EPHEMERIS_TYPE":0,"CLASSIFICATION_TYPE":"U","NORAD_CAT_ID":51868,"ELEMENT_SET_NO":999,"REV_AT_EPOCH":22264,"BSTAR":1.2367094e-5,"MEAN_MOTION_DOT":-9.1e-7,"MEAN_MOTION_DDOT":0},{"OBJECT_NAME":"STARLINK-3588","OBJECT_ID":"2022-022T","EPOCH":"2026-03-06T13:42:18.205920","MEAN_MOTION":15.08838743,"ECCENTRICITY":0.0001541,"INCLINATION":53.2203,"RA_OF_ASC_NODE":23.1184,"ARG_OF_PERICENTER":83.0939,"MEAN_ANOMALY":277.0229,"EPHEMERIS_TYPE":0,"CLASSIFICATION_TYPE":"U","NORAD_CAT_ID":51869,"ELEMENT_SET_NO":999,"REV_AT_EPOCH":22264,"BSTAR":5.0147586e-5,"MEAN_MOTION_DOT":5.1e-6,"MEAN_MOTION_DDOT":0},{"OBJECT_NAME":"STARLINK-3591","OBJECT_ID":"2022-022U","EPOCH":"2026-03-06T13:52:54.055488","MEAN_MOTION":15.08845069,"ECCENTRICITY":0.00010812,"INCLINATION":53.2191,"RA_OF_ASC_NODE":23.0895,"ARG_OF_PERICENTER":75.8245,"MEAN_ANOMALY":284.2868,"EPHEMERIS_TYPE":0,"CLASSIFICATION_TYPE":"U","NORAD_CAT_ID":51870,"ELEMENT_SET_NO":999,"REV_AT_EPOCH":22269,"BSTAR":-0.00012517217,"MEAN_MOTION_DOT":-2.28e-5,"MEAN_MOTION_DDOT":0}]
